[{"OBJECT_NAME":"OBJECT C","OBJECT_ID":"2023-104C","EPOCH":"2026-03-09T22:39:44.230752","MEAN_MOTION":15.26846312,"ECCENTRICITY":0.00113074,"INCLINATION":97.273,"RA_OF_ASC_NODE":135.3333,"ARG_OF_PERICENTER":3.876,"MEAN_ANOMALY":356.2565,"EPHEMERIS_TYPE":0,"CLASSIFICATION_TYPE":"U","NORAD_CAT_ID":57426,"ELEMENT_SET_NO":999,"REV_AT_EPOCH":14663,"BSTAR":0.00062618506,"MEAN_MOTION_DOT":0.00016495,"MEAN_MOTION_DDOT":0},{"OBJECT_NAME":"STARLINK-32638","OBJECT_ID":"2024-249R","EPOCH":"2026-03-09T03:06:16.758432","MEAN_MOTION":15.27592589,"ECCENTRICITY":0.00017334,"INCLINATION":43.0007,"RA_OF_ASC_NODE":328.8669,"ARG_OF_PERICENTER":264.6868,"MEAN_ANOMALY":95.3785,"EPHEMERIS_TYPE":0,"CLASSIFICATION_TYPE":"U","NORAD_CAT_ID":62424,"ELEMENT_SET_NO":999,"REV_AT_EPOCH":6759,"BSTAR":0.0012226824,"MEAN_MOTION_DOT":0.0003355,"MEAN_MOTION_DDOT":0}]
